FENGYUN 3A              
1 32958U 08026A   24028.43714307  .00000240  00000+0  13522-3 0  9999
2 32958  98.5874 339.7677 0009644 115.4321 244.7855 14.19003779812009
FENGYUN 2E              
1 33463U 08066A   24027.63962936 -.00000203  00000+0  00000+0 0  9992
2 33463   7.2274  61.3563 0001501 285.4311  96.6574  1.00273557 55364
NOAA 19                 
1 33591U 09005A   24028.45556522  .00000280  00000+0  17494-3 0  9992
2 33591  99.0693  82.6432 0013289 332.2826  27.7635 14.12915620771751
GOES 14                 
1 35491U 09033A   24028.18013465 -.00000060  00000+0  00000+0 0  9996
2 35491   0.0641 216.8865 0000845 137.3856  88.9784  1.00273269 53429
DMSP 5D-3 F18 (USA 210) 
1 35951U 09057A   24028.45541507  .00000431  00000+0  24978-3 0  9991
2 35951  98.7976   5.8340 0010583 202.7895 157.2809 14.13979522736473
EWS-G2 (GOES 15)        
1 36411U 10008A   24027.89077096  .00000041  00000+0  00000+0 0  9998
2 36411   0.0577 257.7654 0004912  15.9177 235.3536  1.00267227 50906
COMS 1                  
1 36744U 10032A   24028.43565082 -.00000339  00000+0  00000+0 0  9993
2 36744   2.5723  86.6010 0000944 226.0832  99.4997  1.00272403 49926
FENGYUN 3B              
1 37214U 10059A   24028.52328883  .00000143  00000+0  98438-4 0  9990
2 37214  99.0702  54.5536 0022969 128.6991 350.5506 14.14436459684360
SUOMI NPP               
1 37849U 11061A   24028.49678691  .00000181  00000+0  10646-3 0  9995
2 37849  98.7284 328.6097 0000994  60.9054 299.2222 14.19548941634908
FENGYUN 2F              
1 38049U 12002A   24027.64467670 -.00000355  00000+0  00000+0 0  9996
2 38049   5.2415  74.5350 0001544  28.3295   7.7294  1.00267400 44142
METEOSAT-10 (MSG-3)     
1 38552U 12035B   24027.83733409  .00000000  00000+0  00000+0 0  9994
2 38552   2.6512  59.6642 0001191 245.5012 123.0337  1.00276547 42124
METOP-B                 
1 38771U 12049A   24028.39744172  .00000216  00000+0  11869-3 0  9991
2 38771  98.6492  88.6487 0001693  90.5860 269.5512 14.21461389589544
FENGYUN 3C              
1 39260U 13052A   24028.49752748  .00000173  00000+0  10788-3 0  9990
2 39260  98.4275  35.5795 0011409  18.7924 341.3670 14.16139068535418
METEOR-M 2              
1 40069U 14037A   24028.47907056  .00000237  00000+0  12847-3 0  9994
2 40069  98.4309  29.0565 0006661  54.3544 305.8254 14.20880453495645
HIMAWARI-8              
1 40267U 14060A   24027.86526840 -.00000271  00000+0  00000+0 0  9993
2 40267   0.0535 234.7511 0000914  56.5242 287.4861  1.00273904 34026
FENGYUN 2G              
1 40367U 14090A   24027.78547950 -.00000298  00000+0  00000+0 0  9992
2 40367   3.4273  83.1771 0000728 357.9076  67.8967  1.00266098 33261
METEOSAT-11 (MSG-4)     
1 40732U 15034A   24028.26879288  .00000067  00000+0  00000+0 0  9996
2 40732   1.0515  64.2109 0002505 202.2492 326.5354  1.00269781 31270
ELEKTRO-L 2             
1 41105U 15074A   24028.33571337 -.00000112  00000+0  00000+0 0  9999
2 41105   4.4813  81.1694 0003427 200.3790 311.9163  1.00271523 29780
HIMAWARI-9              
1 41836U 16064A   24028.48660229 -.00000269  00000+0  00000+0 0  9998
2 41836   0.0231  95.4386 0000766 229.3095 118.4494  1.00268204 26578
GOES 16                 
1 41866U 16071A   24028.39523692 -.00000242  00000+0  00000+0 0  9992
2 41866   0.0801 258.5083 0001118  78.0791 217.6170  1.00273235 26364
FENGYUN 4A              
1 41882U 16077A   24028.43095160 -.00000323  00000+0  00000+0 0  9995
2 41882   0.1022  68.9248 0005267 335.6762 342.2638  1.00269152 26258
CYGFM05                 
1 41884U 16078A   24027.64306241  .00009478  00000+0  38368-3 0  9996
2 41884  34.9545 114.9596 0012126 346.0586  13.9793 15.23862110394452
CYGFM04                 
1 41885U 16078B   24027.58080267  .00009738  00000+0  38493-3 0  9995
2 41885  34.9477 100.6945 0010672  11.2070 348.8881 15.24667891394526
CYGFM02                 
1 41886U 16078C   24027.62710309  .00009495  00000+0  37487-3 0  9990
2 41886  34.9558 102.8759 0011286   0.1508 359.9208 15.24707191394613
CYGFM01                 
1 41887U 16078D   24027.66482090  .00009349  00000+0  38139-3 0  9991
2 41887  34.9505 118.3151 0012776 344.3939  15.6380 15.23595007394392
CYGFM08                 
1 41888U 16078E   24027.63262710  .00009303  00000+0  37202-3 0  9994
2 41888  34.9478 107.9159 0011566   0.2562 359.8157 15.24277604394554
CYGFM07                 
1 41890U 16078G   24027.57977888  .00009905  00000+0  39044-3 0  9993
2 41890  34.9502 100.2113 0010283   8.6109 351.4780 15.24760097394536
CYGFM03                 
1 41891U 16078H   24027.60808292  .00009535  00000+0  37666-3 0  9997
2 41891  34.9533 101.0857 0009359   1.2059 358.8676 15.24705158394521
FENGYUN 3D              
1 43010U 17072A   24028.45522054  .00000199  00000+0  11653-3 0  9995
2 43010  98.8930 342.4342 0002163  45.3039 314.8313 14.19274653321455
NOAA 20                 
1 43013U 17073A   24028.46124964  .00000153  00000+0  93201-4 0  9998
2 43013  98.7363 328.5400 0000946 118.2242 241.9030 14.19538730320937
GOES 17                 
1 43226U 18022A   24028.49779278 -.00000084  00000+0  00000+0 0  9990
2 43226   0.0203 156.3421 0001798 129.6377 275.7865  1.00271816 21702
FENGYUN 2H              
1 43491U 18050A   24027.85308521 -.00000126  00000+0  00000+0 0  9990
2 43491   0.7763  88.3015 0000601 335.0852  89.7294  1.00271493 20709
METOP-C                 
1 43689U 18087A   24028.43465619  .00000215  00000+0  11820-3 0  9990
2 43689  98.7011  89.5947 0003530 117.2497 242.9040 14.21502539271128
GEO-KOMPSAT-2A          
1 43823U 18100A   24028.43573785 -.00000337  00000+0  00000+0 0  9990
2 43823   0.0154 141.0535 0000806 245.4443  25.7928  1.00271308 18937
METEOR-M2 2             
1 44387U 19038A   24028.46841156  .00000076  00000+0  53013-4 0  9996
2 44387  98.8088 357.2813 0001835  43.0227 317.1095 14.23846361237368
ARKTIKA-M 1             
1 47719U 21016A   24026.18874713  .00000129  00000+0  00000+0 0  9991
2 47719  63.1423 167.9406 6902254 269.0517  18.1133  2.00601252 21277
FENGYUN 3E              
1 49008U 21062A   24028.46784700  .00000053  00000+0  45726-4 0  9999
2 49008  98.7300  31.6528 0002620  82.4594 277.6879 14.19725267133026
GOES 18                 
1 51850U 22021A   24028.23729840  .00000102  00000+0  00000+0 0  9998
2 51850   0.0054 298.7944 0000603 322.2425 174.3713  1.00273144  7074
NOAA 21 (JPSS-2)        
1 54234U 22150A   24028.12536869  .00000185  00000+0  10846-3 0  9999
2 54234  98.7398 327.7705 0001270 103.2400 256.8918 14.19566624 62961
METEOSAT-12 (MTG-I1)    
1 54743U 22170C   24028.12337785  .00000014  00000+0  00000+0 0  9990
2 54743   0.3894 358.0017 0000558 259.9350 271.7210  1.00409191  4238
TIANMU-1 03             
1 55973U 23039A   24028.42532301  .00010233  00000+0  43777-3 0  9991
2 55973  97.4495 179.7513 0011918 241.0830 118.9212 15.22951569 47415
TIANMU-1 04             
1 55974U 23039B   24028.47277076  .00009611  00000+0  41152-3 0  9995
2 55974  97.4416 179.5107 0008867 240.2122 119.8233 15.22967090 47419
TIANMU-1 05             
1 55975U 23039C   24028.45833564  .00009492  00000+0  40704-3 0  9993
2 55975  97.4464 179.7283 0005017 229.6710 130.4088 15.22942416 47409
TIANMU-1 06             
1 55976U 23039D   24028.44256866  .00009669  00000+0  41464-3 0  9997
2 55976  97.4478 179.8028 0004492 231.4471 128.6363 15.22938418 47406
METEOR-M2 3             
1 57166U 23091A   24028.43438829  .00000041  00000+0  37091-4 0  9995
2 57166  98.7349  84.2331 0004265 163.9706 196.1608 14.23868200 30599
TIANMU-1 07             
1 57399U 23101A   24028.45076555  .00006022  00000+0  32399-3 0  9991
2 57399  97.3841  89.6153 0003912 335.5424  24.5623 15.15205561 29105
TIANMU-1 08             
1 57400U 23101B   24028.41922601  .00005117  00000+0  27591-3 0  9994
2 57400  97.3831  89.4796 0006391 332.4243  27.6650 15.15192081 29091
TIANMU-1 09             
1 57401U 23101C   24028.40056281  .00005458  00000+0  29396-3 0  9999
2 57401  97.3785  89.3904 0006556 325.7465  34.3344 15.15202530 29090
TIANMU-1 10             
1 57402U 23101D   24028.43211577  .00006226  00000+0  33436-3 0  9998
2 57402  97.3867  89.5501 0009149 326.2864  33.7786 15.15234595 29096
FENGYUN 3F              
1 57490U 23111A   24028.42720404  .00000142  00000+0  88219-4 0  9990
2 57490  98.7879  98.7615 0001788 113.6102 246.5262 14.19760319 25295
TIANMU-1 11             
1 58645U 23205A   24028.45668555  .00004700  00000+0  26235-3 0  9991
2 58645  97.4183  57.1814 0012252 151.8554 208.3342 15.13950884  5213
TIANMU-1 12             
1 58646U 23205B   24028.46097473  .00004931  00000+0  27691-3 0  9991
2 58646  97.4168  57.1691 0011146 147.9747 212.2164 15.13722455  5207
TIANMU-1 13             
1 58647U 23205C   24028.40408585  .00004998  00000+0  28441-3 0  9993
2 58647  97.4199  57.1064 0011540 141.8222 218.3829 15.13239812  5198
TIANMU-1 14             
1 58648U 23205D   24028.46189012  .00004858  00000+0  27325-3 0  9996
2 58648  97.4123  57.1473 0011840 145.6113 214.5887 15.13663316  5208
TIANMU-1 19             
1 58660U 23208A   24028.39263688  .00006980  00000+0  39521-3 0  9996
2 58660  97.4004 144.6281 0012235 132.4713 227.7554 15.13272247  4865
TIANMU-1 20             
1 58661U 23208B   24028.44836398  .00006656  00000+0  36742-3 0  9999
2 58661  97.3927 144.6725 0011869 143.4214 216.7831 15.14203425  4872
TIANMU-1 21             
1 58662U 23208C   24028.44537333  .00006859  00000+0  37608-3 0  9994
2 58662  97.3973 144.6962 0010933 143.8095 216.3879 15.14440214  4876
TIANMU-1 22             
1 58663U 23208D   24028.43858345  .00006369  00000+0  34643-3 0  9995
2 58663  97.3987 144.7112 0011350 152.0955 208.0888 15.14749195  4879
